{
  "type": "FeatureCollection",
  "features": [
    {
      "type": "Feature",
      "properties": {
        "norad_id": 66648,
        "name": "COSMOS 2598 (RODNIK-S 23)",
        "group": "last-30-days",
        "lat": -33.988250362017325,
        "lon": 111.23332906868553,
        "alt_km": 1493.103797950681,
        "timestamp": "2025-12-13T05:42:56.156573+00:00",
        "meta_object_name": "COSMOS 2598 (RODNIK-S 23)",
        "meta_object_id": "2025-273B",
        "meta_epoch": "2025-12-12T05:23:22.351200",
        "meta_mean_motion": 12.43233288,
        "meta_eccentricity": 0.0007984,
        "meta_inclination": 82.5021,
        "meta_ra_of_asc_node": 286.7701,
        "meta_arg_of_pericenter": 238.3191,
        "meta_mean_anomaly": 121.7111,
        "meta_ephemeris_type": 0,
        "meta_classification_type": "U",
        "meta_norad_cat_id": 66648,
        "meta_element_set_no": 999,
        "meta_rev_at_epoch": 207,
        "meta_bstar": -4.7631301e-05,
        "meta_mean_motion_dot": 3e-08,
        "meta_mean_motion_ddot": 0,
        "tle_line1": "1 66648U 25273B   25346.22456425  .00000003  00000+0 -47631-4 0  9997",
        "tle_line2": "2 66648  82.5021 286.7701 0007984 238.3191 121.7111 12.43233288  2075"
      },
      "geometry": {
        "type": "Point",
        "coordinates": [
          111.23332906868553,
          -33.988250362017325
        ]
      }
    },
    {
      "type": "Feature",
      "properties": {
        "norad_id": 66649,
        "name": "COSMOS 2599 (RODNIK-S 24)",
        "group": "last-30-days",
        "lat": 23.577327697295384,
        "lon": 102.86492641419386,
        "alt_km": 1503.6372137225226,
        "timestamp": "2025-12-13T05:42:56.156583+00:00",
        "meta_object_name": "COSMOS 2599 (RODNIK-S 24)",
        "meta_object_id": "2025-273C",
        "meta_epoch": "2025-12-12T05:39:39.397824",
        "meta_mean_motion": 12.41150084,
        "meta_eccentricity": 0.00063321,
        "meta_inclination": 82.5043,
        "meta_ra_of_asc_node": 286.7793,
        "meta_arg_of_pericenter": 280.36,
        "meta_mean_anomaly": 79.6765,
        "meta_ephemeris_type": 0,
        "meta_classification_type": "U",
        "meta_norad_cat_id": 66649,
        "meta_element_set_no": 999,
        "meta_rev_at_epoch": 207,
        "meta_bstar": 0.0005542127,
        "meta_mean_motion_dot": 8.5e-07,
        "meta_mean_motion_ddot": 0,
        "tle_line1": "1 66649U 25273C   25346.23587266  .00000085  00000+0  55421-3 0  9991",
        "tle_line2": "2 66649  82.5043 286.7793 0006332 280.3600  79.6765 12.41150084  2075"
      },
      "geometry": {
        "type": "Point",
        "coordinates": [
          102.86492641419386,
          23.577327697295384
        ]
      }
    },
    {
      "type": "Feature",
      "properties": {
        "norad_id": 66650,
        "name": "BEE-1000",
        "group": "last-30-days",
        "lat": 81.55703159330288,
        "lon": -151.94972059172585,
        "alt_km": 592.2192015895098,
        "timestamp": "2025-12-13T05:42:56.156597+00:00",
        "meta_object_name": "BEE-1000",
        "meta_object_id": "2025-274A",
        "meta_epoch": "2025-12-12T06:47:20.164992",
        "meta_mean_motion": 14.91659686,
        "meta_eccentricity": 0.00103671,
        "meta_inclination": 97.7386,
        "meta_ra_of_asc_node": 273.4789,
        "meta_arg_of_pericenter": 253.1002,
        "meta_mean_anomaly": 106.908,
        "meta_ephemeris_type": 0,
        "meta_classification_type": "U",
        "meta_norad_cat_id": 66650,
        "meta_element_set_no": 999,
        "meta_rev_at_epoch": 233,
        "meta_bstar": 0.00032557311,
        "meta_mean_motion_dot": 3.219e-05,
        "meta_mean_motion_ddot": 0,
        "tle_line1": "1 66650U 25274A   25346.28287228  .00003219  00000+0  32557-3 0  9991",
        "tle_line2": "2 66650  97.7386 273.4789 0010367 253.1002 106.9080 14.91659686  2332"
      },
      "geometry": {
        "type": "Point",
        "coordinates": [
          -151.94972059172585,
          81.55703159330288
        ]
      }
    },
    {
      "type": "Feature",
      "properties": {
        "norad_id": 66651,
        "name": "2025-274B",
        "group": "last-30-days",
        "lat": 82.04147235683986,
        "lon": 170.97615624666975,
        "alt_km": 591.6418396401468,
        "timestamp": "2025-12-13T05:42:56.156608+00:00",
        "meta_object_name": "2025-274B",
        "meta_object_id": "2025-274B",
        "meta_epoch": "2025-12-12T06:46:03.676800",
        "meta_mean_motion": 14.91793861,
        "meta_eccentricity": 0.00105918,
        "meta_inclination": 97.738,
        "meta_ra_of_asc_node": 273.4793,
        "meta_arg_of_pericenter": 252.1037,
        "meta_mean_anomaly": 107.9028,
        "meta_ephemeris_type": 0,
        "meta_classification_type": "U",
        "meta_norad_cat_id": 66651,
        "meta_element_set_no": 999,
        "meta_rev_at_epoch": 233,
        "meta_bstar": 0.00067190686,
        "meta_mean_motion_dot": 6.73e-05,
        "meta_mean_motion_ddot": 0,
        "tle_line1": "1 66651U 25274B   25346.28198700  .00006730  00000+0  67191-3 0  9991",
        "tle_line2": "2 66651  97.7380 273.4793 0010591 252.1037 107.9028 14.91793861  2335"
      },
      "geometry": {
        "type": "Point",
        "coordinates": [
          170.97615624666975,
          82.04147235683986
        ]
      }
    },
    {
      "type": "Feature",
      "properties": {
        "norad_id": 66652,
        "name": "2025-274C",
        "group": "last-30-days",
        "lat": 77.58322370524068,
        "lon": 132.56413094402964,
        "alt_km": 591.2764716247584,
        "timestamp": "2025-12-13T05:42:56.156618+00:00",
        "meta_object_name": "2025-274C",
        "meta_object_id": "2025-274C",
        "meta_epoch": "2025-12-12T06:44:02.277024",
        "meta_mean_motion": 14.91893997,
        "meta_eccentricity": 0.00102548,
        "meta_inclination": 97.7384,
        "meta_ra_of_asc_node": 273.4821,
        "meta_arg_of_pericenter": 259.1477,
        "meta_mean_anomaly": 100.8588,
        "meta_ephemeris_type": 0,
        "meta_classification_type": "U",
        "meta_norad_cat_id": 66652,
        "meta_element_set_no": 999,
        "meta_rev_at_epoch": 233,
        "meta_bstar": 0.0003930876,
        "meta_mean_motion_dot": 3.922e-05,
        "meta_mean_motion_ddot": 0,
        "tle_line1": "1 66652U 25274C   25346.28058191  .00003922  00000+0  39309-3 0  9991",
        "tle_line2": "2 66652  97.7384 273.4821 0010254 259.1477 100.8588 14.91893997  2337"
      },
      "geometry": {
        "type": "Point",
        "coordinates": [
          132.56413094402964,
          77.58322370524068
        ]
      }
    },
    {
      "type": "Feature",
      "properties": {
        "norad_id": 66653,
        "name": "2025-274D",
        "group": "last-30-days",
        "lat": 77.26718586421772,
        "lon": 131.41993374681965,
        "alt_km": 591.5612447913072,
        "timestamp": "2025-12-13T05:42:56.156629+00:00",
        "meta_object_name": "2025-274D",
        "meta_object_id": "2025-274D",
        "meta_epoch": "2025-12-12T06:43:56.026848",
        "meta_mean_motion": 14.91903217,
        "meta_eccentricity": 0.00111463,
        "meta_inclination": 97.7384,
        "meta_ra_of_asc_node": 273.4819,
        "meta_arg_of_pericenter": 255.0642,
        "meta_mean_anomaly": 104.9343,
        "meta_ephemeris_type": 0,
        "meta_classification_type": "U",
        "meta_norad_cat_id": 66653,
        "meta_element_set_no": 999,
        "meta_rev_at_epoch": 233,
        "meta_bstar": 0.00047403777,
        "meta_mean_motion_dot": 4.744e-05,
        "meta_mean_motion_ddot": 0,
        "tle_line1": "1 66653U 25274D   25346.28050957  .00004744  00000+0  47404-3 0  9992",
        "tle_line2": "2 66653  97.7384 273.4819 0011146 255.0642 104.9343 14.91903217  2336"
      },
      "geometry": {
        "type": "Point",
        "coordinates": [
          131.41993374681965,
          77.26718586421772
        ]
      }
    },
    {
      "type": "Feature",
      "properties": {
        "norad_id": 66654,
        "name": "JACK E",
        "group": "last-30-days",
        "lat": 68.4829200434345,
        "lon": 114.60356387725953,
        "alt_km": 591.3692865049134,
        "timestamp": "2025-12-13T05:42:56.156643+00:00",
        "meta_object_name": "JACK E",
        "meta_object_id": "2025-274E",
        "meta_epoch": "2025-12-12T05:04:50.530080",
        "meta_mean_motion": 14.92078144,
        "meta_eccentricity": 0.00117599,
        "meta_inclination": 97.7387,
        "meta_ra_of_asc_node": 273.4187,
        "meta_arg_of_pericenter": 257.0683,
        "meta_mean_anomaly": 102.9223,
        "meta_ephemeris_type": 0,
        "meta_classification_type": "U",
        "meta_norad_cat_id": 66654,
        "meta_element_set_no": 999,
        "meta_rev_at_epoch": 232,
        "meta_bstar": 0.00048666514,
        "meta_mean_motion_dot": 4.894e-05,
        "meta_mean_motion_ddot": 0,
        "tle_line1": "1 66654U 25274E   25346.21169595  .00004894  00000+0  48667-3 0  9993",
        "tle_line2": "2 66654  97.7387 273.4187 0011759 257.0683 102.9223 14.92078144  2322"
      },
      "geometry": {
        "type": "Point",
        "coordinates": [
          114.60356387725953,
          68.4829200434345
        ]
      }
    }
  ]
}